[{"OBJECT_NAME":"GALAXY 33 (G-33)","OBJECT_ID":"2022-128A","EPOCH":"2026-03-04T11:59:38.898528","MEAN_MOTION":1.00273603,"ECCENTRICITY":0.0001905,"INCLINATION":0.0178,"RA_OF_ASC_NODE":167.1994,"ARG_OF_PERICENTER":174.916,"MEAN_ANOMALY":227.0745,"EPHEMERIS_TYPE":0,"CLASSIFICATION_TYPE":"U","NORAD_CAT_ID":54026,"ELEMENT_SET_NO":999,"REV_AT_EPOCH":1269,"BSTAR":0,"MEAN_MOTION_DOT":0,"MEAN_MOTION_DDOT":0},{"OBJECT_NAME":"GALAXY 34 (G-34)","OBJECT_ID":"2022-128B","EPOCH":"2026-03-04T11:51:38.736576","MEAN_MOTION":1.00273026,"ECCENTRICITY":0.0001374,"INCLINATION":0.0121,"RA_OF_ASC_NODE":133.0404,"ARG_OF_PERICENTER":213.4009,"MEAN_ANOMALY":224.7144,"EPHEMERIS_TYPE":0,"CLASSIFICATION_TYPE":"U","NORAD_CAT_ID":54027,"ELEMENT_SET_NO":999,"REV_AT_EPOCH":1286,"BSTAR":0,"MEAN_MOTION_DOT":4.7e-7,"MEAN_MOTION_DDOT":0},{"OBJECT_NAME":"GALAXY 31 (G-31)","OBJECT_ID":"2022-153A","EPOCH":"2026-03-04T10:46:38.640576","MEAN_MOTION":1.00272513,"ECCENTRICITY":0.0001496,"INCLINATION":0.0131,"RA_OF_ASC_NODE":192.4371,"ARG_OF_PERICENTER":161.1783,"MEAN_ANOMALY":209.2299,"EPHEMERIS_TYPE":0,"CLASSIFICATION_TYPE":"U","NORAD_CAT_ID":54243,"ELEMENT_SET_NO":999,"REV_AT_EPOCH":608,"BSTAR":0,"MEAN_MOTION_DOT":2.0e-8,"MEAN_MOTION_DDOT":0},{"OBJECT_NAME":"GALAXY 32 (G-32)","OBJECT_ID":"2022-153B","EPOCH":"2026-03-04T04:27:38.803392","MEAN_MOTION":1.00267915,"ECCENTRICITY":0.00030041,"INCLINATION":0.0222,"RA_OF_ASC_NODE":132.7365,"ARG_OF_PERICENTER":225.3208,"MEAN_ANOMALY":139.8078,"EPHEMERIS_TYPE":0,"CLASSIFICATION_TYPE":"U","NORAD_CAT_ID":54244,"ELEMENT_SET_NO":999,"REV_AT_EPOCH":1209,"BSTAR":0,"MEAN_MOTION_DOT":0,"MEAN_MOTION_DDOT":0},{"OBJECT_NAME":"GALAXY 35 (G-35)","OBJECT_ID":"2022-170A","EPOCH":"2026-03-04T15:19:34.239936","MEAN_MOTION":1.0027127,"ECCENTRICITY":0.000201,"INCLINATION":0.0141,"RA_OF_ASC_NODE":198.4611,"ARG_OF_PERICENTER":145.4902,"MEAN_ANOMALY":315.217,"EPHEMERIS_TYPE":0,"CLASSIFICATION_TYPE":"U","NORAD_CAT_ID":54741,"ELEMENT_SET_NO":999,"REV_AT_EPOCH":1184,"BSTAR":0,"MEAN_MOTION_DOT":-1.73e-6,"MEAN_MOTION_DDOT":0},{"OBJECT_NAME":"GALAXY 36 (G-36)","OBJECT_ID":"2022-170B","EPOCH":"2026-03-04T08:25:38.679168","MEAN_MOTION":1.00270694,"ECCENTRICITY":0.00020988,"INCLINATION":0.0154,"RA_OF_ASC_NODE":143.6744,"ARG_OF_PERICENTER":253.2128,"MEAN_ANOMALY":162.6025,"EPHEMERIS_TYPE":0,"CLASSIFICATION_TYPE":"U","NORAD_CAT_ID":54742,"ELEMENT_SET_NO":999,"REV_AT_EPOCH":1172,"BSTAR":0,"MEAN_MOTION_DOT":-1.97e-6,"MEAN_MOTION_DDOT":0},{"OBJECT_NAME":"GALAXY 37 (G-37)","OBJECT_ID":"2023-112A","EPOCH":"2026-03-04T11:51:38.736576","MEAN_MOTION":1.00272438,"ECCENTRICITY":0.0002054,"INCLINATION":0.0219,"RA_OF_ASC_NODE":122.3223,"ARG_OF_PERICENTER":224.4042,"MEAN_ANOMALY":226.4095,"EPHEMERIS_TYPE":0,"CLASSIFICATION_TYPE":"U","NORAD_CAT_ID":57493,"ELEMENT_SET_NO":999,"REV_AT_EPOCH":949,"BSTAR":0,"MEAN_MOTION_DOT":3.7e-7,"MEAN_MOTION_DDOT":0}]
