GALAXY 33 (G-33)        
1 54026U 22128A   26063.49975577  .00000000  00000+0  00000+0 0  9990
2 54026   0.0178 167.1994 0001905 174.9160 227.0745  1.00273603 12692
GALAXY 34 (G-34)        
1 54027U 22128B   26063.49419834  .00000047  00000+0  00000+0 0  9991
2 54027   0.0121 133.0404 0001374 213.4009 224.7144  1.00273026 12865
GALAXY 31 (G-31)        
1 54243U 22153A   26063.44905834  .00000002  00000+0  00000+0 0  9995
2 54243   0.0131 192.4371 0001496 161.1783 209.2299  1.00272513  6087
GALAXY 32 (G-32)        
1 54244U 22153B   26063.18586578  .00000000  00000+0  00000+0 0  9995
2 54244   0.0222 132.7365 0003004 225.3208 139.8078  1.00267915 12092
GALAXY 35 (G-35)        
1 54741U 22170A   26063.63859074 -.00000173  00000+0  00000+0 0  9992
2 54741   0.0141 198.4611 0002010 145.4902 315.2170  1.00271270 11840
GALAXY 36 (G-36)        
1 54742U 22170B   26063.35114212 -.00000197  00000+0  00000+0 0  9996
2 54742   0.0154 143.6744 0002098 253.2128 162.6025  1.00270694 11727
GALAXY 37 (G-37)        
1 57493U 23112A   26063.49419834  .00000037  00000+0  00000+0 0  9994
2 57493   0.0219 122.3223 0002054 224.4042 226.4095  1.00272438  9493
